1 69696U 16025E   23183.00000000  .00002000  00000-0  49111-4 0  6969
2 69696  97.7640 191.5890 0001000 00.0000 000.0000 14.89144204204206
